{"type": "FeatureCollection", "features": [ {"type": "Feature", "properties": {"norad_id": 38779, "name": "GSAT-10 (GAGAN/PRN 128)", "group": "gnss", "lat": 0.008975519593140364, "lon": -36.557710737567675, "alt_km": 35794.54136390855, "timestamp": "2025-12-08T10:52:03.188839+00:00", "meta": {"OBJECT_NAME": "GSAT-10 (GAGAN/PRN 128)", "OBJECT_ID": "2012-051B", "EPOCH": "2025-12-07T21:47:38.556960", "MEAN_MOTION": 1.00273343, "ECCENTRICITY": 0.00021867, "INCLINATION": 0.0202, "RA_OF_ASC_NODE": 264.2491, "ARG_OF_PERICENTER": 223.8462, "MEAN_ANOMALY": 358.7162, "EPHEMERIS_TYPE": 0, "CLASSIFICATION_TYPE": "U", "NORAD_CAT_ID": 38779, "ELEMENT_SET_NO": 999, "REV_AT_EPOCH": 4818, "BSTAR": 0, "MEAN_MOTION_DOT": -1.62e-06, "MEAN_MOTION_DDOT": 0}, "tle": {"line1": "1 38779U 12051B   25341.90808515 -.00000162  00000+0  00000+0 0  9992", "line2": "2 38779   0.0202 264.2491 0002186 223.8462 358.7162  1.00273343 48188"}}, "geometry": {"type": "Point", "coordinates": [-36.557710737567675, 0.008975519593140364]}}, {"type": "Feature", "properties": {"norad_id": 38833, "name": "GPS BIIF-3  (PRN 24)", "group": "gnss", "lat": 47.28156386841608, "lon": -155.42147968209952, "alt_km": 19710.315633688802, "timestamp": "2025-12-08T10:52:03.188851+00:00", "meta": {"OBJECT_NAME": "GPS BIIF-3  (PRN 24)", "OBJECT_ID": "2012-053A", "EPOCH": "2025-12-07T08:48:17.210304", "MEAN_MOTION": 2.00564894, "ECCENTRICITY": 0.01756357, "INCLINATION": 53.5567, "RA_OF_ASC_NODE": 151.4587, "ARG_OF_PERICENTER": 63.9203, "MEAN_ANOMALY": 297.8751, "EPHEMERIS_TYPE": 0, "CLASSIFICATION_TYPE": "U", "NORAD_CAT_ID": 38833, "ELEMENT_SET_NO": 999, "REV_AT_EPOCH": 9559, "BSTAR": 0, "MEAN_MOTION_DOT": 5.3e-07, "MEAN_MOTION_DDOT": 0}, "tle": {"line1": "1 38833U 12053A   25341.36686586  .00000053  00000+0  00000+0 0  9995", "line2": "2 38833  53.5567 151.4587 0175635  63.9203 297.8751  2.00564894 95594"}}, "geometry": {"type": "Point", "coordinates": [-155.42147968209952, 47.28156386841608]}}, {"type": "Feature", "properties": {"norad_id": 38857, "name": "GSAT0103 (GALILEO-FM3)", "group": "gnss", "lat": 42.2598840932559, "lon": -111.5344858897447, "alt_km": 23222.955657294373, "timestamp": "2025-12-08T10:52:03.188862+00:00", "meta": {"OBJECT_NAME": "GSAT0103 (GALILEO-FM3)", "OBJECT_ID": "2012-055A", "EPOCH": "2025-12-06T11:43:28.953984", "MEAN_MOTION": 1.7047325, "ECCENTRICITY": 0.00024686, "INCLINATION": 55.6879, "RA_OF_ASC_NODE": 106.8382, "ARG_OF_PERICENTER": 267.747, "MEAN_ANOMALY": 92.1776, "EPHEMERIS_TYPE": 0, "CLASSIFICATION_TYPE": "U", "NORAD_CAT_ID": 38857, "ELEMENT_SET_NO": 999, "REV_AT_EPOCH": 8172, "BSTAR": 0, "MEAN_MOTION_DOT": 7e-08, "MEAN_MOTION_DDOT": 0}, "tle": {"line1": "1 38857U 12055A   25340.48852956  .00000007  00000+0  00000+0 0  9990", "line2": "2 38857  55.6879 106.8382 0002468 267.7470  92.1776  1.70473250 81723"}}, "geometry": {"type": "Point", "coordinates": [-111.5344858897447, 42.2598840932559]}}, {"type": "Feature", "properties": {"norad_id": 38953, "name": "BEIDOU-2 G6 (C02)", "group": "gnss", "lat": -3.6835440033980924, "lon": -35.59243207585354, "alt_km": 35762.64931156765, "timestamp": "2025-12-08T10:52:03.188874+00:00", "meta": {"OBJECT_NAME": "BEIDOU-2 G6 (C02)", "OBJECT_ID": "2012-059A", "EPOCH": "2025-12-07T20:53:01.861152", "MEAN_MOTION": 1.00270169, "ECCENTRICITY": 0.00076498, "INCLINATION": 3.9366, "RA_OF_ASC_NODE": 75.5513, "ARG_OF_PERICENTER": 289.3533, "MEAN_ANOMALY": 109.2777, "EPHEMERIS_TYPE": 0, "CLASSIFICATION_TYPE": "U", "NORAD_CAT_ID": 38953, "ELEMENT_SET_NO": 999, "REV_AT_EPOCH": 4799, "BSTAR": 0, "MEAN_MOTION_DOT": -1.74e-06, "MEAN_MOTION_DDOT": 0}, "tle": {"line1": "1 38953U 12059A   25341.87016043 -.00000174  00000+0  00000+0 0  9990", "line2": "2 38953   3.9366  75.5513 0007649 289.3533 109.2777  1.00270169 47990"}}, "geometry": {"type": "Point", "coordinates": [-35.59243207585354, -3.6835440033980924]}}, {"type": "Feature", "properties": {"norad_id": 38977, "name": "LUCH 5B (SDCM/PRN 125)", "group": "gnss", "lat": 1.3200439304514913, "lon": -135.77507170233233, "alt_km": 35756.291077583366, "timestamp": "2025-12-08T10:52:03.188888+00:00", "meta": {"OBJECT_NAME": "LUCH 5B (SDCM/PRN 125)", "OBJECT_ID": "2012-061A", "EPOCH": "2025-12-07T22:07:08.419872", "MEAN_MOTION": 1.0027229, "ECCENTRICITY": 0.00073464, "INCLINATION": 10.0705, "RA_OF_ASC_NODE": 51.7515, "ARG_OF_PERICENTER": 190.4868, "MEAN_ANOMALY": 150.138, "EPHEMERIS_TYPE": 0, "CLASSIFICATION_TYPE": "U", "NORAD_CAT_ID": 38977, "ELEMENT_SET_NO": 999, "REV_AT_EPOCH": 4768, "BSTAR": 0, "MEAN_MOTION_DOT": -1.39e-06, "MEAN_MOTION_DDOT": 0}, "tle": {"line1": "1 38977U 12061A   25341.92162523 -.00000139  00000+0  00000+0 0  9991", "line2": "2 38977  10.0705  51.7515 0007346 190.4868 150.1380  1.00272290 47685"}}, "geometry": {"type": "Point", "coordinates": [-135.77507170233233, 1.3200439304514913]}}, {"type": "Feature", "properties": {"norad_id": 39155, "name": "COSMOS 2485 (747)", "group": "gnss", "lat": 41.89486872271738, "lon": 104.3482933017729, "alt_km": 19187.812117873797, "timestamp": "2025-12-08T10:52:03.188901+00:00", "meta": {"OBJECT_NAME": "COSMOS 2485 (747)", "OBJECT_ID": "2013-019A", "EPOCH": "2025-12-05T02:32:45.729312", "MEAN_MOTION": 2.13102875, "ECCENTRICITY": 0.00246247, "INCLINATION": 65.3094, "RA_OF_ASC_NODE": 80.124, "ARG_OF_PERICENTER": 229.2984, "MEAN_ANOMALY": 130.4888, "EPHEMERIS_TYPE": 0, "CLASSIFICATION_TYPE": "U", "NORAD_CAT_ID": 39155, "ELEMENT_SET_NO": 999, "REV_AT_EPOCH": 9814, "BSTAR": 0, "MEAN_MOTION_DOT": -2.1e-07, "MEAN_MOTION_DDOT": 0}, "tle": {"line1": "1 39155U 13019A   25339.10608483 -.00000021  00000+0  00000+0 0  9991", "line2": "2 39155  65.3094  80.1240 0024624 229.2984 130.4888  2.13102875 98144"}}, "geometry": {"type": "Point", "coordinates": [104.3482933017729, 41.89486872271738]}}, {"type": "Feature", "properties": {"norad_id": 39166, "name": "GPS BIIF-4  (PRN 27)", "group": "gnss", "lat": 12.207182289129497, "lon": 87.90888954756682, "alt_km": 20338.962990723965, "timestamp": "2025-12-08T10:52:03.188912+00:00", "meta": {"OBJECT_NAME": "GPS BIIF-4  (PRN 27)", "OBJECT_ID": "2013-023A", "EPOCH": "2025-12-07T05:32:23.722368", "MEAN_MOTION": 2.00565063, "ECCENTRICITY": 0.01375641, "INCLINATION": 54.6569, "RA_OF_ASC_NODE": 276.7922, "ARG_OF_PERICENTER": 48.5542, "MEAN_ANOMALY": 312.6301, "EPHEMERIS_TYPE": 0, "CLASSIFICATION_TYPE": "U", "NORAD_CAT_ID": 39166, "ELEMENT_SET_NO": 999, "REV_AT_EPOCH": 9203, "BSTAR": 0, "MEAN_MOTION_DOT": -3.4e-07, "MEAN_MOTION_DDOT": 0}, "tle": {"line1": "1 39166U 13023A   25341.23083012 -.00000034  00000+0  00000+0 0  9994", "line2": "2 39166  54.6569 276.7922 0137564  48.5542 312.6301  2.00565063 92038"}}, "geometry": {"type": "Point", "coordinates": [87.90888954756682, 12.207182289129497]}}, {"type": "Feature", "properties": {"norad_id": 39199, "name": "IRNSS-1A", "group": "gnss", "lat": -26.022474920264195, "lon": -69.8434847883232, "alt_km": 35720.80629206029, "timestamp": "2025-12-08T10:52:03.188926+00:00", "meta": {"OBJECT_NAME": "IRNSS-1A", "OBJECT_ID": "2013-034A", "EPOCH": "2025-12-02T19:49:26.431104", "MEAN_MOTION": 1.00279053, "ECCENTRICITY": 0.00216608, "INCLINATION": 35.2852, "RA_OF_ASC_NODE": 66.6964, "ARG_OF_PERICENTER": 185.4059, "MEAN_ANOMALY": 172.3398, "EPHEMERIS_TYPE": 0, "CLASSIFICATION_TYPE": "U", "NORAD_CAT_ID": 39199, "ELEMENT_SET_NO": 999, "REV_AT_EPOCH": 4539, "BSTAR": 0, "MEAN_MOTION_DOT": 6.5e-07, "MEAN_MOTION_DDOT": 0}, "tle": {"line1": "1 39199U 13034A   25336.82600036  .00000065  00000+0  00000+0 0  9995", "line2": "2 39199  35.2852  66.6964 0021660 185.4059 172.3398  1.00279053 45393"}}, "geometry": {"type": "Point", "coordinates": [-69.8434847883232, -26.022474920264195]}}, {"type": "Feature", "properties": {"norad_id": 39533, "name": "GPS BIIF-5  (PRN 30)", "group": "gnss", "lat": 11.93231039721664, "lon": -31.870096304391335, "alt_km": 20078.104730022485, "timestamp": "2025-12-08T10:52:03.188938+00:00", "meta": {"OBJECT_NAME": "GPS BIIF-5  (PRN 30)", "OBJECT_ID": "2014-008A", "EPOCH": "2025-12-07T17:22:04.649088", "MEAN_MOTION": 2.00574086, "ECCENTRICITY": 0.007908, "INCLINATION": 53.6303, "RA_OF_ASC_NODE": 157.1293, "ARG_OF_PERICENTER": 226.426, "MEAN_ANOMALY": 132.9228, "EPHEMERIS_TYPE": 0, "CLASSIFICATION_TYPE": "U", "NORAD_CAT_ID": 39533, "ELEMENT_SET_NO": 999, "REV_AT_EPOCH": 8584, "BSTAR": 0, "MEAN_MOTION_DOT": 5.5e-07, "MEAN_MOTION_DDOT": 0}, "tle": {"line1": "1 39533U 14008A   25341.72366492  .00000055  00000+0  00000+0 0  9998", "line2": "2 39533  53.6303 157.1293 0079080 226.4260 132.9228  2.00574086 85843"}}, "geometry": {"type": "Point", "coordinates": [-31.870096304391335, 11.93231039721664]}}, {"type": "Feature", "properties": {"norad_id": 39617, "name": "ASTRA 5B (EGNOS/PRN 123)", "group": "gnss", "lat": -0.06498171631641098, "lon": -96.0406464231605, "alt_km": 35767.3094595301, "timestamp": "2025-12-08T10:52:03.188950+00:00", "meta": {"OBJECT_NAME": "ASTRA 5B (EGNOS/PRN 123)", "OBJECT_ID": "2014-011B", "EPOCH": "2025-12-07T22:18:22.344192", "MEAN_MOTION": 1.002696, "ECCENTRICITY": 0.00045686, "INCLINATION": 0.0534, "RA_OF_ASC_NODE": 26.5701, "ARG_OF_PERICENTER": 234.7752, "MEAN_ANOMALY": 173.6844, "EPHEMERIS_TYPE": 0, "CLASSIFICATION_TYPE": "U", "NORAD_CAT_ID": 39617, "ELEMENT_SET_NO": 999, "REV_AT_EPOCH": 4275, "BSTAR": 0, "MEAN_MOTION_DOT": 1.4e-06, "MEAN_MOTION_DDOT": 0}, "tle": {"line1": "1 39617U 14011B   25341.92942528  .00000140  00000+0  00000+0 0  9992", "line2": "2 39617   0.0534  26.5701 0004568 234.7752 173.6844  1.00269600 42759"}}, "geometry": {"type": "Point", "coordinates": [-96.0406464231605, -0.06498171631641098]}}]}